[
    {
        "Altitude(m)": 571204.2618990178,
        "Argument of Periapsis(deg)": -0.022603160782972403,
        "Eccentricity": 0.0,
        "Inclination(deg)": 97.0,
        "Latitude(deg)": -20.30793045470597,
        "Longitude(deg)": -9.754693458284546,
        "Mean Anomaly(deg)": -20.209956730812518,
        "RAAN(deg)": 90.0059470536185,
        "Satellite Name": "Starlink Shell 3 1807",
        "Satellite Number": 1807,
        "Semi-Major Axis(m)": 6938478.169268562,
        "Time(s)": 570
    },
    {
        "Altitude(m)": 571001.6496776484,
        "Argument of Periapsis(deg)": -0.02299970746337543,
        "Eccentricity": 0.0,
        "Inclination(deg)": 97.0,
        "Latitude(deg)": -19.68554119180984,
        "Longitude(deg)": -9.88252510097791,
        "Mean Anomaly(deg)": -19.584480533107513,
        "RAAN(deg)": 90.00605138789253,
        "Satellite Name": "Starlink Shell 3 1807",
        "Satellite Number": 1807,
        "Semi-Major Axis(m)": 6938478.169268562,
        "Time(s)": 580
    },
    {
        "Altitude(m)": 570802.0351163453,
        "Argument of Periapsis(deg)": -0.023396254143778456,
        "Eccentricity": 0.0,
        "Inclination(deg)": 97.0,
        "Latitude(deg)": -19.063042708627567,
        "Longitude(deg)": -10.00969879855774,
        "Mean Anomaly(deg)": -18.9590043354024,
        "RAAN(deg)": 90.00615572216653,
        "Satellite Name": "Starlink Shell 3 1807",
        "Satellite Number": 1807,
        "Semi-Major Axis(m)": 6938478.169268562,
        "Time(s)": 590
    },
    {
        "Altitude(m)": 570605.4868387538,
        "Argument of Periapsis(deg)": -0.023792800824181483,
        "Eccentricity": 0.0,
        "Inclination(deg)": 97.0,
        "Latitude(deg)": -18.440438075096576,
        "Longitude(deg)": -10.136241949948174,
        "Mean Anomaly(deg)": -18.333528137697392,
        "RAAN(deg)": 90.00626005644054,
        "Satellite Name": "Starlink Shell 3 1807",
        "Satellite Number": 1807,
        "Semi-Major Axis(m)": 6938478.169268562,
        "Time(s)": 600
    },
    {
        "Altitude(m)": 570412.071908586,
        "Argument of Periapsis(deg)": -0.024189347504584503,
        "Eccentricity": 0.0,
        "Inclination(deg)": 97.0,
        "Latitude(deg)": -17.817730347345485,
        "Longitude(deg)": -10.262181267849964,
        "Mean Anomaly(deg)": -17.708051939992387,
        "RAAN(deg)": 90.00636439071454,
        "Satellite Name": "Starlink Shell 3 1807",
        "Satellite Number": 1807,
        "Semi-Major Axis(m)": 6938478.169268562,
        "Time(s)": 610
    },
    {
        "Altitude(m)": 570221.8557992398,
        "Argument of Periapsis(deg)": -0.02458589418498753,
        "Eccentricity": 0.0,
        "Inclination(deg)": 97.0,
        "Latitude(deg)": -17.194922569185184,
        "Longitude(deg)": -10.387542309966369,
        "Mean Anomaly(deg)": -17.08257574228733,
        "RAAN(deg)": 90.00646872498854,
        "Satellite Name": "Starlink Shell 3 1807",
        "Satellite Number": 1807,
        "Semi-Major Axis(m)": 6938478.169268562,
        "Time(s)": 620
    },
    {
        "Altitude(m)": 570034.9023642229,
        "Argument of Periapsis(deg)": -0.024982440865390556,
        "Eccentricity": 0.0,
        "Inclination(deg)": 97.0,
        "Latitude(deg)": -16.5720177734919,
        "Longitude(deg)": -10.512350689658346,
        "Mean Anomaly(deg)": -16.45709954458227,
        "RAAN(deg)": 90.00657305926256,
        "Satellite Name": "Starlink Shell 3 1807",
        "Satellite Number": 1807,
        "Semi-Major Axis(m)": 6938478.169268562,
        "Time(s)": 630
    },
    {
        "Altitude(m)": 569851.2738083337,
        "Argument of Periapsis(deg)": -0.025378987545793576,
        "Eccentricity": 0.0,
        "Inclination(deg)": 97.0,
        "Latitude(deg)": -15.949018983481372,
        "Longitude(deg)": -10.636630763701133,
        "Mean Anomaly(deg)": -15.83162334687721,
        "RAAN(deg)": 90.00667739353656,
        "Satellite Name": "Starlink Shell 3 1807",
        "Satellite Number": 1807,
        "Semi-Major Axis(m)": 6938478.169268562,
        "Time(s)": 640
    },
    {
        "Altitude(m)": 569671.0306596971,
        "Argument of Periapsis(deg)": -0.025775534226196602,
        "Eccentricity": 0.0,
        "Inclination(deg)": 97.0,
        "Latitude(deg)": -15.325929213889781,
        "Longitude(deg)": -10.760406840145826,
        "Mean Anomaly(deg)": -15.206147149172152,
        "RAAN(deg)": 90.00678172781058,
        "Satellite Name": "Starlink Shell 3 1807",
        "Satellite Number": 1807,
        "Semi-Major Axis(m)": 6938478.169268562,
        "Time(s)": 650
    },
    {
        "Altitude(m)": 569494.2317425647,
        "Argument of Periapsis(deg)": -0.026172080906599626,
        "Eccentricity": 0.0,
        "Inclination(deg)": 97.0,
        "Latitude(deg)": -14.702751472059356,
        "Longitude(deg)": -10.883702703945744,
        "Mean Anomaly(deg)": -14.580670951467155,
        "RAAN(deg)": 90.0068860620846,
        "Satellite Name": "Starlink Shell 3 1807",
        "Satellite Number": 1807,
        "Semi-Major Axis(m)": 6938478.169268562,
        "Time(s)": 660
    },
    {
        "Altitude(m)": 569320.9341510263,
        "Argument of Periapsis(deg)": -0.026568627587002652,
        "Eccentricity": 0.0,
        "Inclination(deg)": 97.0,
        "Latitude(deg)": -14.079488758936908,
        "Longitude(deg)": -11.006541141400156,
        "Mean Anomaly(deg)": -13.955194753762097,
        "RAAN(deg)": 90.0069903963586,
        "Satellite Name": "Starlink Shell 3 1807",
        "Satellite Number": 1807,
        "Semi-Major Axis(m)": 6938478.169268562,
        "Time(s)": 670
    },
    {
        "Altitude(m)": 569151.1932234896,
        "Argument of Periapsis(deg)": -0.02696517426740568,
        "Eccentricity": 0.0,
        "Inclination(deg)": 97.0,
        "Latitude(deg)": -13.456144069994139,
        "Longitude(deg)": -11.128944976365338,
        "Mean Anomaly(deg)": -13.329718556057026,
        "RAAN(deg)": 90.0070947306326,
        "Satellite Name": "Starlink Shell 3 1807",
        "Satellite Number": 1807,
        "Semi-Major Axis(m)": 6938478.169268562,
        "Time(s)": 680
    },
    {
        "Altitude(m)": 568985.0625181246,
        "Argument of Periapsis(deg)": -0.0273617209478087,
        "Eccentricity": 0.0,
        "Inclination(deg)": 97.0,
        "Latitude(deg)": -12.832720396067941,
        "Longitude(deg)": -11.2509365925585,
        "Mean Anomaly(deg)": -12.704242358351967,
        "RAAN(deg)": 90.00719906490663,
        "Satellite Name": "Starlink Shell 3 1807",
        "Satellite Number": 1807,
        "Semi-Major Axis(m)": 6938478.169268562,
        "Time(s)": 690
    },
    {
        "Altitude(m)": 568822.59378911,
        "Argument of Periapsis(deg)": -0.027758267628211725,
        "Eccentricity": 0.0,
        "Inclination(deg)": 97.0,
        "Latitude(deg)": -12.209220724128953,
        "Longitude(deg)": -11.372537454896682,
        "Mean Anomaly(deg)": -12.078766160646921,
        "RAAN(deg)": 90.00730339918063,
        "Satellite Name": "Starlink Shell 3 1807",
        "Satellite Number": 1807,
        "Semi-Major Axis(m)": 6938478.169268562,
        "Time(s)": 700
    },
    {
        "Altitude(m)": 568663.8369638266,
        "Argument of Periapsis(deg)": -0.028154814308614752,
        "Eccentricity": 0.0,
        "Inclination(deg)": 97.0,
        "Latitude(deg)": -11.58564803798547,
        "Longitude(deg)": -11.493769142809116,
        "Mean Anomaly(deg)": -11.453289962941913,
        "RAAN(deg)": 90.00740773345464,
        "Satellite Name": "Starlink Shell 3 1807",
        "Satellite Number": 1807,
        "Semi-Major Axis(m)": 6938478.169268562,
        "Time(s)": 710
    },
    {
        "Altitude(m)": 568508.840120941,
        "Argument of Periapsis(deg)": -0.02855136098901778,
        "Eccentricity": 0.0,
        "Inclination(deg)": 97.0,
        "Latitude(deg)": -10.962005318921017,
        "Longitude(deg)": -11.614652869836577,
        "Mean Anomaly(deg)": -10.827813765236854,
        "RAAN(deg)": 90.00751206772864,
        "Satellite Name": "Starlink Shell 3 1807",
        "Satellite Number": 1807,
        "Semi-Major Axis(m)": 6938478.169268562,
        "Time(s)": 720
    },
    {
        "Altitude(m)": 568357.6494694228,
        "Argument of Periapsis(deg)": -0.028947907669420805,
        "Eccentricity": 0.0,
        "Inclination(deg)": 97.0,
        "Latitude(deg)": -10.338295546273326,
        "Longitude(deg)": -11.735209002450718,
        "Mean Anomaly(deg)": -10.202337567531796,
        "RAAN(deg)": 90.00761640200267,
        "Satellite Name": "Starlink Shell 3 1807",
        "Satellite Number": 1807,
        "Semi-Major Axis(m)": 6938478.169268562,
        "Time(s)": 730
    },
    {
        "Altitude(m)": 568210.3093284837,
        "Argument of Periapsis(deg)": -0.029344454349823825,
        "Eccentricity": 0.0,
        "Inclination(deg)": 97.0,
        "Latitude(deg)": -9.71452169796015,
        "Longitude(deg)": -11.855458091021415,
        "Mean Anomaly(deg)": -9.576861369826737,
        "RAAN(deg)": 90.00772073627667,
        "Satellite Name": "Starlink Shell 3 1807",
        "Satellite Number": 1807,
        "Semi-Major Axis(m)": 6938478.169268562,
        "Time(s)": 740
    },
    {
        "Altitude(m)": 568066.8621084866,
        "Argument of Periapsis(deg)": -0.029741001030226845,
        "Eccentricity": 0.0,
        "Inclination(deg)": 97.0,
        "Latitude(deg)": -9.090686750951244,
        "Longitude(deg)": -11.975420387238108,
        "Mean Anomaly(deg)": -8.951385172121679,
        "RAAN(deg)": 90.00782507055067,
        "Satellite Name": "Starlink Shell 3 1807",
        "Satellite Number": 1807,
        "Semi-Major Axis(m)": 6938478.169268562,
        "Time(s)": 750
    }
]